ISS (ZARYA)             
1 25544U 98067A   25364.53284235  .00016289  00000+0  30357-3 0  9998
2 25544  51.6331  54.3560 0007484 320.1003  39.9435 15.48944140545610
CSS (TIANHE)            
1 48274U 21035A   25364.77333338  .00024941  00000+0  30324-3 0  9997
2 48274  41.4669 267.1660 0009716 184.6419 175.4330 15.59924070266842
ISS (NAUKA)             
1 49044U 21066A   25364.53284236  .00016291  00000+0  30361-3 0  9993
2 49044  51.6331  54.3560 0007483 320.1003  39.9435 15.48944140230442
CSS (WENTIAN)           
1 53239U 22085A   25364.13310625  .00025691  00000+0  31261-3 0  9998
2 53239  41.4672 271.0575 0009498 180.1911 179.8925 15.59892918173847
CSS (MENGTIAN)          
1 54216U 22143A   25364.13310625  .00025691  00000+0  31261-3 0  9999
2 54216  41.4672 271.0575 0009498 180.1911 179.8925 15.59892918158644
SHENZHOU-20 (SZ-20)     
1 63632U 25082A   25364.13310625  .00025691  00000+0  31261-3 0  9996
2 63632  41.4672 271.0575 0009498 180.1911 179.8925 15.59892918255307
PROGRESS-MS 31          
1 64751U 25146A   25364.53284236  .00016291  00000+0  30361-3 0  9998
2 64751  51.6331  54.3560 0007483 320.1003  39.9435 15.48944140  6759
TIANZHOU-9              
1 64786U 25149A   25364.13310625  .00025691  00000+0  31261-3 0  9991
2 64786  41.4672 271.0575 0009498 180.1911 179.8925 15.59892918255308
CREW DRAGON 11          
1 65077U 25166A   25364.53284236  .00016291  00000+0  30361-3 0  9992
2 65077  51.6331  54.3560 0007483 320.1003  39.9435 15.48944140  2140
DRAGON CRS-33           
1 65304U 25186A   25364.53284236  .00016291  00000+0  30361-3 0  9997
2 65304  51.6331  54.3560 0007483 320.1003  39.9435 15.48944140   118
PROGRESS-MS 32          
1 65586U 25204A   25364.53284236  .00016291  00000+0  30361-3 0  9990
2 65586  51.6331  54.3560 0007483 320.1003  39.9435 15.48944140   277
